ION SCV-004             
1 50993U 22002K   26068.68892644  .00006538  00000+0  23198-3 0  9998
2 50993  97.2961 128.2294 0007216   1.6783 358.4480 15.29369331230088
STARLINK-35540          
1 66151U 25240F   26068.29821130  .00025609  00000+0  87397-3 0  9998
2 66151  53.1601  64.2660 0001204  99.8588 260.2549 15.30192894 21930
