[{"OBJECT_NAME":"ION SCV-004","OBJECT_ID":"2022-002K","EPOCH":"2026-03-09T16:32:03.244416","MEAN_MOTION":15.29369331,"ECCENTRICITY":0.00072157,"INCLINATION":97.2961,"RA_OF_ASC_NODE":128.2294,"ARG_OF_PERICENTER":1.6783,"MEAN_ANOMALY":358.448,"EPHEMERIS_TYPE":0,"CLASSIFICATION_TYPE":"U","NORAD_CAT_ID":50993,"ELEMENT_SET_NO":999,"REV_AT_EPOCH":23008,"BSTAR":0.00023198467,"MEAN_MOTION_DOT":6.538e-5,"MEAN_MOTION_DDOT":0},{"OBJECT_NAME":"STARLINK-35540","OBJECT_ID":"2025-240F","EPOCH":"2026-03-09T07:09:25.456320","MEAN_MOTION":15.30192894,"ECCENTRICITY":0.00012047,"INCLINATION":53.1601,"RA_OF_ASC_NODE":64.266,"ARG_OF_PERICENTER":99.8588,"MEAN_ANOMALY":260.2549,"EPHEMERIS_TYPE":0,"CLASSIFICATION_TYPE":"U","NORAD_CAT_ID":66151,"ELEMENT_SET_NO":999,"REV_AT_EPOCH":2193,"BSTAR":0.00087397443,"MEAN_MOTION_DOT":0.00025609,"MEAN_MOTION_DDOT":0}]
